$$SOE
2459580.500000000, A.D. 2022-Jan-01 00:00:00.0000, 4.339436832940642E+08, -6.061986497104882E+07, 1.108194796835563E+08,
2459587.500000000, A.D. 2022-Jan-08 00:00:00.0000, 4.357440556920494E+08, -5.154325752663259E+07, 1.141619637837826E+08,
2459594.500000000, A.D. 2022-Jan-15 00:00:00.0000, 4.373176582592148E+08, -4.243999572670771E+07, 1.174448622379586E+08,
2459601.500000000, A.D. 2022-Jan-22 00:00:00.0000, 4.386657789884378E+08, -3.331502393383481E+07, 1.206670305698948E+08,
2459608.500000000, A.D. 2022-Jan-29 00:00:00.0000, 4.397897693996368E+08, -2.417320212398472E+07, 1.238273687503585E+08,
2459615.500000000, A.D. 2022-Feb-05 00:00:00.0000, 4.406910391006955E+08, -1.501930809015545E+07, 1.269248198913159E+08,
2459622.500000000, A.D. 2022-Feb-12 00:00:00.0000, 4.413710527080838E+08, -5.858040757132187E+06, 1.299583686981817E+08,
2459629.500000000, A.D. 2022-Feb-19 00:00:00.0000, 4.418313277945169E+08, 3.305977770062283E+06, 1.329270399949440E+08,
2459636.500000000, A.D. 2022-Feb-26 00:00:00.0000, 4.420734325457514E+08, 1.246820070856327E+07, 1.358298973835619E+08,
2459643.500000000, A.D. 2022-Mar-05 00:00:00.0000, 4.420989832794811E+08, 2.162415504052761E+07, 1.386660419726225E+08,
2459650.500000000, A.D. 2022-Mar-12 00:00:00.0000, 4.419096420418345E+08, 3.076943983668743E+07, 1.414346111492670E+08,
2459657.500000000, A.D. 2022-Mar-19 00:00:00.0000, 4.415071143463405E+08, 3.989972449415299E+07, 1.441347773897221E+08,
2459664.500000000, A.D. 2022-Mar-26 00:00:00.0000, 4.408931470718212E+08, 4.901074688762084E+07, 1.467657471054144E+08,
2459671.500000000, A.D. 2022-Apr-02 00:00:00.0000, 4.400695265813748E+08, 5.809831138271600E+07, 1.493267595133976E+08,
2459678.500000000, A.D. 2022-Apr-09 00:00:00.0000, 4.390380773289472E+08, 6.715828672011527E+07, 1.518170855058627E+08,
2459685.500000000, A.D. 2022-Apr-16 00:00:00.0000, 4.378006613044696E+08, 7.618660442791629E+07, 1.542360265380914E+08,
2459692.500000000, A.D. 2022-Apr-23 00:00:00.0000, 4.363591770423930E+08, 8.517925885084657E+07, 1.565829137385694E+08,
2459699.500000000, A.D. 2022-Apr-30 00:00:00.0000, 4.347155563194996E+08, 9.413230655536793E+07, 1.588571072296980E+08,
2459706.500000000, A.D. 2022-May-07 00:00:00.0000, 4.328717616013342E+08, 1.030418631389880E+08, 1.610579952170448E+08,
2459713.500000000, A.D. 2022-May-14 00:00:00.0000, 4.308297856212593E+08, 1.119041004836369E+08, 1.631849929665390E+08,
2459720.500000000, A.D. 2022-May-21 00:00:00.0000, 4.285916510559493E+08, 1.207152452144787E+08, 1.652375419168877E+08,
2459727.500000000, A.D. 2022-May-28 00:00:00.0000, 4.261594098144826E+08, 1.294715774077597E+08, 1.672151088924068E+08,
2459734.500000000, A.D. 2022-Jun-04 00:00:00.0000, 4.235351422144853E+08, 1.381694292367071E+08, 1.691171853649663E+08,
2459741.500000000, A.D. 2022-Jun-11 00:00:00.0000, 4.207209561864589E+08, 1.468051835591220E+08, 1.709432867515363E+08,
2459748.500000000, A.D. 2022-Jun-18 00:00:00.0000, 4.177189865415164E+08, 1.553752724611031E+08, 1.726929517442798E+08,
2459755.500000000, A.D. 2022-Jun-25 00:00:00.0000, 4.145313943284859E+08, 1.638761757246513E+08, 1.743657416669537E+08,
2459762.500000000, A.D. 2022-Jul-02 00:00:00.0000, 4.111603664109430E+08, 1.723044191542607E+08, 1.759612398388874E+08,
2459769.500000000, A.D. 2022-Jul-09 00:00:00.0000, 4.076081156509146E+08, 1.806565729402106E+08, 1.774790509238808E+08,
2459776.500000000, A.D. 2022-Jul-16 00:00:00.0000, 4.038768816399238E+08, 1.889292511422201E+08, 1.789188003557643E+08,
2459783.500000000, A.D. 2022-Jul-23 00:00:00.0000, 3.999689297745248E+08, 1.971191123735558E+08, 1.802801340474806E+08,
2459790.500000000, A.D. 2022-Jul-30 00:00:00.0000, 3.958865487586524E+08, 2.052228583347090E+08, 1.815627181032892E+08,
2459797.500000000, A.D. 2022-Aug-06 00:00:00.0000, 3.916320501311202E+08, 2.132372308453428E+08, 1.827662382582269E+08,
2459804.500000000, A.D. 2022-Aug-13 00:00:00.0000, 3.872077689929944E+08, 2.211590101287063E+08, 1.838903993451088E+08,
2459811.500000000, A.D. 2022-Aug-20 00:00:00.0000, 3.826160643632162E+08, 2.289850138454888E+08, 1.849349248916505E+08,
2459818.500000000, A.D. 2022-Aug-27 00:00:00.0000, 3.778593192287747E+08, 2.367120961509177E+08, 1.858995567820004E+08,
2459825.500000000, A.D. 2022-Sep-03 00:00:00.0000, 3.729399405355578E+08, 2.443371466648476E+08, 1.867840549506220E+08,
2459832.500000000, A.D. 2022-Sep-10 00:00:00.0000, 3.678603592081344E+08, 2.518570893791093E+08, 1.875881971018057E+08,
2459839.500000000, A.D. 2022-Sep-17 00:00:00.0000, 3.626230302261074E+08, 2.592688815008649E+08, 1.883117784515405E+08,
2459846.500000000, A.D. 2022-Sep-24 00:00:00.0000, 3.572304328158572E+08, 2.665695121816891E+08, 1.889546114816942E+08,
2459853.500000000, A.D. 2022-Oct-01 00:00:00.0000, 3.516850709964031E+08, 2.737560011107370E+08, 1.895165256824674E+08,
2459860.500000000, A.D. 2022-Oct-08 00:00:00.0000, 3.459894748858556E+08, 2.808253974943343E+08, 1.899973672881125E+08,
2459867.500000000, A.D. 2022-Oct-15 00:00:00.0000, 3.401462018351865E+08, 2.877747806207400E+08, 1.903969991881208E+08,
2459874.500000000, A.D. 2022-Oct-22 00:00:00.0000, 3.341578352051482E+08, 2.946012603268414E+08, 1.907153010751151E+08,
2459881.500000000, A.D. 2022-Oct-29 00:00:00.0000, 3.280269832835276E+08, 3.013019747751731E+08, 1.909521693890592E+08,
2459888.500000000, A.D. 2022-Nov-05 00:00:00.0000, 3.217562804424070E+08, 3.078740882825620E+08, 1.911075170891429E+08,
2459895.500000000, A.D. 2022-Nov-12 00:00:00.0000, 3.153483885692381E+08, 3.143147904674394E+08, 1.911812735357721E+08,
2459902.500000000, A.D. 2022-Nov-19 00:00:00.0000, 3.088059980507482E+08, 3.206212957625027E+08, 1.911733844699175E+08,
2459909.500000000, A.D. 2022-Nov-26 00:00:00.0000, 3.021318285707721E+08, 3.267908428965519E+08, 1.910838120331224E+08,
2459916.500000000, A.D. 2022-Dec-03 00:00:00.0000, 2.953286298871768E+08, 3.328206943352082E+08, 1.909125348120943E+08,
2459923.500000000, A.D. 2022-Dec-10 00:00:00.0000, 2.883991826327064E+08, 3.387081357004847E+08, 1.906595479055386E+08,
2459930.500000000, A.D. 2022-Dec-17 00:00:00.0000, 2.813462991639192E+08, 3.444504751455351E+08, 1.903248630093981E+08,
2459937.500000000, A.D. 2022-Dec-24 00:00:00.0000, 2.741728245672081E+08, 3.500450426201478E+08, 1.899085085057117E+08,
2459944.500000000, A.D. 2022-Dec-31 00:00:00.0000, 2.668816381794450E+08, 3.554891891360385E+08, 1.894105295319084E+08,
2459951.500000000, A.D. 2023-Jan-07 00:00:00.0000, 2.594756557463843E+08, 3.607802869955773E+08, 1.888309880986465E+08,
2459958.500000000, A.D. 2023-Jan-14 00:00:00.0000, 2.519578302514977E+08, 3.659157314810015E+08, 1.881699634768012E+08,
2459965.500000000, A.D. 2023-Jan-21 00:00:00.0000, 2.443311507685162E+08, 3.708929408328775E+08, 1.874275526532826E+08,
2459972.500000000, A.D. 2023-Jan-28 00:00:00.0000, 2.365986430056178E+08, 3.757093543255908E+08, 1.866038705051949E+08,
2459979.500000000, A.D. 2023-Feb-04 00:00:00.0000, 2.287633713338354E+08, 3.803624314693573E+08, 1.856990499599012E+08,
2459986.500000000, A.D. 2023-Feb-11 00:00:00.0000, 2.208284405041388E+08, 3.848496521464055E+08, 1.847132422898755E+08,
2459993.500000000, A.D. 2023-Feb-18 00:00:00.0000, 2.127969969894871E+08, 3.891685168601724E+08, 1.836466174813712E+08,
2460000.500000000, A.D. 2023-Feb-25 00:00:00.0000, 2.046722302146665E+08, 3.933165469379672E+08, 1.824993646402677E+08,
2460007.500000000, A.D. 2023-Mar-04 00:00:00.0000, 1.964573737762357E+08, 3.972912847080135E+08, 1.812716924276851E+08,
2460014.500000000, A.D. 2023-Mar-11 00:00:00.0000, 1.881557066810243E+08, 4.010902936533484E+08, 1.799638295228580E+08,
2460021.500000000, A.D. 2023-Mar-18 00:00:00.0000, 1.797705546494320E+08, 4.047111584952312E+08, 1.785760251048265E+08,
2460028.500000000, A.D. 2023-Mar-25 00:00:00.0000, 1.713052916853903E+08, 4.081514851616319E+08, 1.771085493307289E+08,
2460035.500000000, A.D. 2023-Apr-01 00:00:00.0000, 1.627633423360778E+08, 4.114089010380731E+08, 1.755616938051589E+08,
2460042.500000000, A.D. 2023-Apr-08 00:00:00.0000, 1.541481840256970E+08, 4.144810567300799E+08, 1.739357721990138E+08,
2460049.500000000, A.D. 2023-Apr-15 00:00:00.0000, 1.454633471259291E+08, 4.173656282339159E+08, 1.722311211426442E+08,
2460056.500000000, A.D. 2023-Apr-22 00:00:00.0000, 1.367124145702066E+08, 4.200603164673543E+08, 1.704481009791054E+08,
2460063.500000000, A.D. 2023-Apr-29 00:00:00.0000, 1.278990237467214E+08, 4.225628464192415E+08, 1.685870963134458E+08,
2460070.500000000, A.D. 2023-May-06 00:00:00.0000, 1.190268689107807E+08, 4.248709677030716E+08, 1.666485166660844E+08,
2460077.500000000, A.D. 2023-May-13 00:00:00.0000, 1.100997031387506E+08, 4.269824556242430E+08, 1.646327972468012E+08,
2460084.500000000, A.D. 2023-May-20 00:00:00.0000, 1.011213400559973E+08, 4.288951122738830E+08, 1.625403997879851E+08,
2460091.500000000, A.D. 2023-May-27 00:00:00.0000, 9.209565553046447E+07, 4.306067676243077E+08, 1.603718134174593E+08,
2460098.500000000, A.D. 2023-Jun-03 00:00:00.0000, 8.302658938746706E+07, 4.321152806568930E+08, 1.581275555682395E+08,
2460105.500000000, A.D. 2023-Jun-10 00:00:00.0000, 7.391814716724549E+07, 4.334185405136093E+08, 1.558081729224595E+08,
2460112.500000000, A.D. 2023-Jun-17 00:00:00.0000, 6.477440201176588E+07, 4.345144676173826E+08, 1.534142423769535E+08,
2460119.500000000, A.D. 2023-Jun-24 00:00:00.0000, 5.559949699780636E+07, 4.354010148225782E+08, 1.509463720064028E+08,
2460126.500000000, A.D. 2023-Jul-01 00:00:00.0000, 4.639764816637360E+07, 4.360761694302559E+08, 1.484052020696018E+08,
2460133.500000000, A.D. 2023-Jul-08 00:00:00.0000, 3.717314657214018E+07, 4.365379568969697E+08, 1.457914062805364E+08,
2460140.500000000, A.D. 2023-Jul-15 00:00:00.0000, 2.793035807303118E+07, 4.367844434117033E+08, 1.431056932296175E+08,
2460147.500000000, A.D. 2023-Jul-22 00:00:00.0000, 1.867372437509903E+07, 4.368137363122081E+08, 1.403488075478806E+08,
2460154.500000000, A.D. 2023-Jul-29 00:00:00.0000, 9.407765814781908E+06, 4.366239854949476E+08, 1.375215310285912E+08,
$$EOE